NORAD_CAT_ID,OBJECT_NAME,OBJECT_TYPE,EPOCH,MEAN_MOTION,ECCENTRICITY,INCLINATION,RA_OF_ASC_NODE,ARG_OF_PERICENTER,MEAN_ANOMALY,BSTAR,MEAN_MOTION_DOT,MEAN_MOTION_DDOT,TLE_LINE0,TLE_LINE1,TLE_LINE2,SEMIMAJOR_AXIS,PERIOD,APOGEE,PERIGEE,DECAYED
51791.0,STARLINK-3602,PAYLOAD,2024-05-24 03:14:15,15.08848363,0.0001496,53.2201,47.5271,70.1649,289.9504,2.6e-05,1.26e-06,0.0,0 STARLINK-3602,1 51791U 22017Z   24145.13489839  .00000126  00000-0  26000-4 0  9997,2 51791  53.2201  47.5271 0001496  70.1649 289.9504 15.08848363125103,6917.855,95.437,540.755,538.685,0.0
51791.0,STARLINK-3602,PAYLOAD,2024-05-24 20:43:29,15.08836101,0.0001163,53.2175,44.2551,117.6721,242.4389,5.1784e-05,5.36e-06,0.0,0 STARLINK-3602,1 51791U 22017Z   24145.86354133  .00000536  00000-0  51784-4 0  9997,2 51791  53.2175  44.2551 0001163 117.6721 242.4389 15.08836101125211,6917.892,95.438,540.562,538.953,0.0
51791.0,STARLINK-3602,PAYLOAD,2024-05-24 22:18:53,15.08836493,0.0001167,53.2174,43.9578,117.8977,242.2133,5.0117e-05,5.1e-06,0.0,0 STARLINK-3602,1 51791U 22017Z   24145.92978121  .00000510  00000-0  50117-4 0  9994,2 51791  53.2174  43.9578 0001167 117.8977 242.2133 15.08836493125224,6917.891,95.438,540.563,538.949,0.0
51791.0,STARLINK-3602,PAYLOAD,2024-05-24 23:54:18,15.08812106,0.0001124,53.218,43.6679,101.2669,258.8449,-0.00019929,-3.456e-05,0.0,0 STARLINK-3602,1 51791U 22017Z   24145.99604439 -.00003456  00000-0 -19929-3 0  9998,2 51791  53.2180  43.6679 0001124 101.2669 258.8449 15.08812106125237,6917.966,95.439,540.608,539.053,0.0
51791.0,STARLINK-3602,PAYLOAD,2024-05-25 20:34:17,15.08834546,0.0001107,53.218,39.8045,111.9126,248.1984,-5.5556e-05,-1.172e-05,0.0,0 STARLINK-3602,1 51791U 22017Z   24146.85715194 -.00001172  00000-0 -55556-4 0  9995,2 51791  53.2180  39.8045 0001107 111.9126 248.1984 15.08834546125360,6917.897,95.438,540.528,538.996,0.0
51791.0,STARLINK-3602,PAYLOAD,2024-05-25 23:45:04,15.08831863,0.0001297,53.2187,39.2185,114.2293,245.8835,-3.3658e-05,-8.23e-06,0.0,0 STARLINK-3602,1 51791U 22017Z   24146.98963451 -.00000823  00000-0 -33658-4 0  9991,2 51791  53.2187  39.2185 0001297 114.2293 245.8835 15.08831863125387,6917.905,95.438,540.668,538.873,0.0
51791.0,STARLINK-3602,PAYLOAD,2024-05-26 23:35:51,15.08829869,0.000162,53.2191,34.7584,126.325,233.7892,1.2687e-05,-8.6e-07,0.0,0 STARLINK-3602,1 51791U 22017Z   24147.98323777 -.00000086  00000-0  12687-4 0  9992,2 51791  53.2191  34.7584 0001620 126.3250 233.7892 15.08829869125531,6917.911,95.438,540.897,538.656,0.0
51791.0,STARLINK-3602,PAYLOAD,2024-05-26 23:36:03,15.08663653,0.0002088,53.2186,34.7574,106.2315,253.8907,-0.0013459,-0.00021542,0.0,0 STARLINK-3602,1 51791U 22017Z   24147.98337601 -.00021542  00000-0 -13459-2 0  9990,2 51791  53.2186  34.7574 0002088 106.2315 253.8907 15.08663653125539,6918.419,95.449,541.729,538.84,0.0
51791.0,STARLINK-3602,PAYLOAD,2024-05-27 09:08:09,15.08844529,0.0001169,53.2182,32.9633,95.1786,264.934,0.00020315,2.947e-05,0.0,0 STARLINK-3602,1 51791U 22017Z   24148.38066124  .00002947  00000-0  20315-3 0  9990,2 51791  53.2182  32.9633 0001169  95.1786 264.9340 15.08844529125591,6917.867,95.437,540.54,538.923,0.0
51791.0,STARLINK-3602,PAYLOAD,2024-05-27 20:15:52,15.08833713,0.0001349,53.2179,30.8772,124.2975,235.8145,2.977e-05,1.86e-06,0.0,0 STARLINK-3602,1 51791U 22017Z   24148.84435248  .00000186  00000-0  29770-4 0  9996,2 51791  53.2179  30.8772 0001349 124.2975 235.8145 15.08833713125663,6917.9,95.438,540.698,538.831,0.0
51791.0,STARLINK-3602,PAYLOAD,2024-05-27 21:51:15,15.08834139,0.0001252,53.2182,30.5816,113.8738,246.2386,3.8628e-05,3.27e-06,0.0,0 STARLINK-3602,1 51791U 22017Z   24148.91059290  .00000327  00000-0  38628-4 0  9992,2 51791  53.2182  30.5816 0001252 113.8738 246.2386 15.08834139125674,6917.898,95.438,540.629,538.897,0.0
51791.0,STARLINK-3602,PAYLOAD,2024-05-28 08:58:57,15.08839149,0.0001224,53.2183,28.5018,104.9153,255.1974,3.9986e-05,3.49e-06,0.0,0 STARLINK-3602,1 51791U 22017Z   24149.37427096  .00000349  00000-0  39986-4 0  9998,2 51791  53.2183  28.5018 0001224 104.9153 255.1974 15.08839149125743,6917.883,95.438,540.595,538.901,0.0
51791.0,STARLINK-3602,PAYLOAD,2024-05-28 20:06:38,15.08843687,0.0001298,53.2182,26.4194,119.8173,240.2948,3.9841e-05,3.46e-06,0.0,0 STARLINK-3602,1 51791U 22017Z   24149.83794643  .00000346  00000-0  39841-4 0  9991,2 51791  53.2182  26.4194 0001298 119.8173 240.2948 15.08843687125818,6917.869,95.437,540.632,538.836,0.0
51791.0,STARLINK-3602,PAYLOAD,2024-05-28 21:42:01,15.08844571,0.0001274,53.2184,26.1224,112.386,247.7268,5.0658e-05,5.19e-06,0.0,0 STARLINK-3602,1 51791U 22017Z   24149.90418593  .00000519  00000-0  50658-4 0  9997,2 51791  53.2184  26.1224 0001274 112.3860 247.7268 15.08844571125827,6917.866,95.437,540.613,538.85,0.0
51791.0,STARLINK-3602,PAYLOAD,2024-05-29 00:52:47,15.08848406,0.0001337,53.2195,25.5268,101.6137,258.5006,7.5322e-05,9.11e-06,0.0,0 STARLINK-3602,1 51791U 22017Z   24150.03666335  .00000911  00000-0  75322-4 0  9993,2 51791  53.2195  25.5268 0001337 101.6137 258.5006 15.08848406125841,6917.855,95.437,540.645,538.795,0.0
51791.0,STARLINK-3602,PAYLOAD,2024-05-29 21:32:48,15.08840559,0.0001257,53.2192,21.6599,93.6436,266.47,3.0103e-05,1.91e-06,0.0,0 STARLINK-3602,1 51791U 22017Z   24150.89778930  .00000191  00000-0  30103-4 0  9990,2 51791  53.2192  21.6599 0001257  93.6436 266.4700 15.08840559125979,6917.879,95.438,540.613,538.874,0.0
51791.0,STARLINK-3602,PAYLOAD,2024-05-30 15:02:03,15.08847562,0.0001114,53.2183,18.3912,94.4825,265.6295,-3.6351e-05,-8.66e-06,0.0,0 STARLINK-3602,1 51791U 22017Z   24151.62642757 -.00000866  00000-0 -36351-4 0  9991,2 51791  53.2183  18.3912 0001114  94.4825 265.6295 15.08847562126088,6917.857,95.437,540.493,538.952,0.0
51791.0,STARLINK-3602,PAYLOAD,2024-05-30 21:23:35,15.08849639,0.0001244,53.2184,17.2022,83.2442,276.8692,2.0854e-06,-2.55e-06,0.0,0 STARLINK-3602,1 51791U 22017Z   24151.89138422 -.00000255  00000-0  20854-5 0  9992,2 51791  53.2184  17.2022 0001244  83.2442 276.8692 15.08849639126121,6917.851,95.437,540.577,538.855,0.0
51791.0,STARLINK-3602,PAYLOAD,2024-05-31 21:14:23,15.08835454,0.000132,53.2191,12.7407,93.1308,266.9836,-1.1921e-05,-4.78e-06,0.0,0 STARLINK-3602,1 51791U 22017Z   24152.88499012 -.00000478  00000-0 -11921-4 0  9999,2 51791  53.2191  12.7407 0001320  93.1308 266.9836 15.08835454126278,6917.894,95.438,540.672,538.846,0.0
51791.0,STARLINK-3602,PAYLOAD,2024-06-01 00:25:09,15.08837147,0.0001381,53.2194,12.1459,93.5705,266.5445,1.203e-06,-2.69e-06,0.0,0 STARLINK-3602,1 51791U 22017Z   24153.01746908 -.00000269  00000-0  12030-5 0  9994,2 51791  53.2194  12.1459 0001381  93.5705 266.5445 15.08837147126299,6917.889,95.438,540.709,538.799,0.0
51791.0,STARLINK-3602,PAYLOAD,2024-06-01 21:05:10,15.08838574,0.0001328,53.2189,8.2802,94.5566,265.5578,-3.8883e-06,-3.5e-06,0.0,0 STARLINK-3602,1 51791U 22017Z   24153.87859023 -.00000350  00000-0 -38883-5 0  9997,2 51791  53.2189   8.2802 0001328  94.5566 265.5578 15.08838574126424,6917.885,95.438,540.668,538.831,0.0
51791.0,STARLINK-3602,PAYLOAD,2024-06-02 20:55:57,15.08831722,0.0001329,53.2189,3.8196,89.711,270.4034,9.2736e-05,1.188e-05,0.0,0 STARLINK-3602,1 51791U 22017Z   24154.87219474  .00001188  00000-0  92736-4 0  9992,2 51791  53.2189   3.8196 0001329  89.7110 270.4034 15.08831722126579,6917.906,95.438,540.69,538.851,0.0
51791.0,STARLINK-3602,PAYLOAD,2024-06-03 20:46:44,15.08840463,0.0001462,53.2193,359.3613,94.2768,265.8391,9.9224e-05,1.292e-05,0.0,0 STARLINK-3602,1 51791U 22017Z   24155.86579258  .00001292  00000-0  99224-4 0  9996,2 51791  53.2193 359.3613 0001462  94.2768 265.8391 15.08840463126728,6917.879,95.438,540.755,538.733,0.0
51791.0,STARLINK-3602,PAYLOAD,2024-06-04 06:19:02,15.08849308,0.0001641,53.2203,357.5748,84.4113,275.7066,0.00015546,2.188e-05,0.0,0 STARLINK-3602,1 51791U 22017Z   24156.26322497  .00002188  00000-0  15546-3 0  9991,2 51791  53.2203 357.5748 0001641  84.4113 275.7066 15.08849308126785,6917.852,95.437,540.852,538.582,0.0
51791.0,STARLINK-3602,PAYLOAD,2024-06-04 22:12:55,15.08830899,0.0001528,53.2221,354.6012,78.5382,281.5782,-8.5458e-05,-1.647e-05,0.0,0 STARLINK-3602,1 51791U 22017Z   24156.92564761 -.00001647  00000-0 -85458-4 0  9997,2 51791  53.2221 354.6012 0001528  78.5382 281.5782 15.08830899126889,6917.908,95.438,540.83,538.716,0.0
51791.0,STARLINK-3602,PAYLOAD,2024-06-05 06:09:50,15.08843863,0.0001099,53.2206,353.1139,72.122,287.9892,-2.5684e-06,-3.29e-06,0.0,0 STARLINK-3602,1 51791U 22017Z   24157.25683649 -.00000329  00000-0 -25684-5 0  9993,2 51791  53.2206 353.1139 0001099  72.1220 287.9892 15.08843863126933,6917.869,95.437,540.494,538.973,0.0
51791.0,STARLINK-3602,PAYLOAD,2024-06-05 22:03:42,15.08840389,0.0001789,53.2239,350.1396,77.5274,282.5918,6.2235e-05,7.03e-06,0.0,0 STARLINK-3602,1 51791U 22017Z   24157.91923924  .00000703  00000-0  62235-4 0  9995,2 51791  53.2239 350.1396 0001789  77.5274 282.5918 15.08840389127037,6917.879,95.438,540.982,538.507,0.0
51791.0,STARLINK-3602,PAYLOAD,2024-06-06 06:00:36,15.08852098,0.0001394,53.2218,348.6527,82.7827,277.3323,0.00010977,1.46e-05,0.0,0 STARLINK-3602,1 51791U 22017Z   24158.25042789  .00001460  00000-0  10977-3 0  9990,2 51791  53.2218 348.6527 0001394  82.7827 277.3323 15.08852098127083,6917.843,95.437,540.673,538.744,0.0
51791.0,STARLINK-3602,PAYLOAD,2024-06-06 21:54:29,15.08838624,0.0001694,53.2151,345.6807,85.979,274.1396,6.1366e-05,6.89e-06,0.0,0 STARLINK-3602,1 51791U 22017Z   24158.91284289  .00000689  00000-0  61366-4 0  9997,2 51791  53.2151 345.6807 0001694  85.9790 274.1396 15.08838624127189,6917.885,95.438,540.921,538.578,0.0
51791.0,STARLINK-3602,PAYLOAD,2024-06-07 18:34:30,15.08839434,0.0002036,53.2134,341.8139,89.6495,270.473,5.4668e-05,5.82e-06,0.0,0 STARLINK-3602,1 51791U 22017Z   24159.77396331  .00000582  00000-0  54668-4 0  9993,2 51791  53.2134 341.8139 0002036  89.6495 270.4730 15.08839434127316,6917.882,95.438,541.156,538.339,0.0
